OBJECT_NAME,OBJECT_ID,EPOCH,MEAN_MOTION,ECCENTRICITY,INCLINATION,RA_OF_ASC_NODE,ARG_OF_PERICENTER,MEAN_ANOMALY,EPHEMERIS_TYPE,CLASSIFICATION_TYPE,NORAD_CAT_ID,ELEMENT_SET_NO,REV_AT_EPOCH,BSTAR,MEAN_MOTION_DOT,MEAN_MOTION_DDOT
STARLINK-2005,2021-009BE,2022-05-17T03:58:52.776768,15.07219757,.0001695,53.0533,132.8865,52.4493,307.6650,0,U,47600,999,7180,.14768E-3,.1966E-4,0
STARLINK-2006,2021-009BF,2022-05-17T05:01:10.291296,15.06403004,.0002012,53.0539,132.7184,50.2517,309.8649,0,U,47601,999,7180,.15852E-3,.208E-4,0
STARLINK-2007,2021-009BG,2022-05-16T10:25:13.024992,15.06391546,.0001931,53.0555,146.1918,50.9991,309.1170,0,U,47602,999,7093,-.6192E-4,-.1204E-4,0
STARLINK-2008,2021-009BH,2022-05-16T13:53:33.189504,15.06389793,.0002046,53.0545,175.5374,40.5638,319.5503,0,U,47603,999,7053,-.72882E-5,-.39E-5,0
STARLINK-2021,2021-009BJ,2022-05-16T07:24:45.043488,15.06398482,.0002041,53.0538,146.7453,39.8855,320.2284,0,U,47604,999,7092,.22183E-4,.49E-6,0
STARLINK-2023,2021-009BK,2022-05-16T19:29:49.149024,15.86298629,.0004724,53.0476,75.0243,107.8300,252.3239,0,U,47605,999,7196,.10613E-2,.27908E-2,0
STARLINK-2024,2021-009BL,2022-05-16T17:03:17.698464,15.06398208,.0001784,53.0550,144.9557,51.4247,308.6901,0,U,47606,999,7098,.3872E-4,.295E-5,0
STARLINK-2025,2021-009BM,2022-05-17T03:40:13.500192,15.06421170,.0002552,53.0535,142.9610,40.2557,319.8621,0,U,47607,999,7164,.47184E-3,.6757E-4,0
STARLINK-1528,2021-012A,2022-05-16T21:41:56.813856,15.06396303,.0001655,53.0537,204.0738,55.1512,304.9632,0,U,47620,999,7005,.36186E-4,.257E-5,0
STARLINK-1609,2021-012B,2022-05-17T03:53:30.198048,15.06381843,.0002008,53.0542,202.9246,52.4370,307.6801,0,U,47621,999,6958,.13286E-3,.1697E-4,0
STARLINK-1645,2021-012C,2022-05-17T03:46:50.159136,15.06388362,.0001689,53.0544,202.9289,59.1937,300.9218,0,U,47622,999,6958,.60688E-4,.622E-5,0
STARLINK-1655,2021-012D,2022-05-16T16:55:59.934720,15.06399173,.0001938,53.0554,139.9772,45.3351,314.7796,0,U,47623,999,7094,.17249E-3,.2288E-4,0
STARLINK-1669,2021-012E,2022-05-17T03:56:09.568032,15.06391678,.0001697,53.0558,182.9209,59.5745,300.5412,0,U,47624,999,6986,-.52528E-4,-.1064E-4,0
STARLINK-1704,2021-012F,2022-05-16T21:36:38.745216,15.06399984,.0001543,53.0536,204.0970,59.5786,300.5355,0,U,47625,999,7005,.67573E-4,.725E-5,0
STARLINK-1761,2021-012G,2022-05-17T05:13:06.511008,15.06386423,.000171,53.0566,202.6819,53.4892,306.6254,0,U,47626,999,6959,.24994E-5,-.244E-5,0
STARLINK-1972,2021-012H,2022-05-16T22:00:00.999936,15.06396288,.0002432,53.0530,109.0049,52.8553,57.8327,0,U,47627,999,130,.14555E-2,.21463E-3,0
STARLINK-1973,2021-012J,2022-05-16T12:35:15.489312,15.06390880,.0001621,53.0535,205.7850,59.4178,300.6970,0,U,47628,999,7000,-.38384E-4,-.853E-5,0
STARLINK-1974,2021-012K,2022-05-16T22:00:00.999936,15.06386564,.000159,53.0552,84.0178,57.7395,10.4251,0,U,47629,999,7122,.33476E-3,.4706E-4,0
STARLINK-1983,2021-012L,2022-05-16T20:28:56.249184,15.06400310,.0002217,53.0549,184.3150,36.7923,323.3218,0,U,47630,999,7031,.15527E-3,.2032E-4,0
STARLINK-1992,2021-012N,2022-05-17T06:00:00.999648,15.06378206,.0002041,53.0539,107.5365,48.6702,295.8300,0,U,47632,999,7092,.11481E-2,.16851E-3,0
STARLINK-2009,2021-012P,2022-05-16T11:20:56.255712,15.06394482,.0001634,53.0545,206.0069,55.8816,304.2327,0,U,47633,999,7001,.62663E-4,.652E-5,0
STARLINK-2010,2021-012Q,2022-05-16T21:57:52.579296,15.06396359,.0001622,53.0557,204.0252,66.0681,294.0478,0,U,47634,999,7005,.4327E-4,.363E-5,0
STARLINK-2012,2021-012R,2022-05-16T22:00:00.999936,15.06367760,.0001699,53.0623,108.9554,51.9013,178.8692,0,U,47635,999,7087,.1738E-2,.25678E-3,0
STARLINK-2013,2021-012S,2022-05-16T20:03:45.400896,15.06396615,.0001449,53.0555,184.3879,78.3027,281.8125,0,U,47636,999,7032,.29586E-4,.159E-5,0
STARLINK-2014,2021-012T,2022-05-16T14:34:41.159712,15.06394249,.0001954,53.0553,185.4143,45.7875,314.3274,0,U,47637,999,7030,-.4641E-4,-.973E-5,0
STARLINK-2015,2021-012U,2022-05-16T08:09:11.722464,15.06399368,.0001903,53.0523,111.6125,68.7211,291.3981,0,U,47638,999,7128,.14856E-5,-.26E-5,0
STARLINK-2016,2021-012V,2022-05-16T20:24:59.192640,15.06398770,.0001658,53.0548,184.3182,51.6063,308.5075,0,U,47639,999,7031,.10152E-3,.1231E-4,0
STARLINK-2018,2021-012W,2022-05-16T21:52:34.007808,15.06397990,.0001771,53.0542,204.0380,48.3517,311.7624,0,U,47640,999,7006,.13253E-3,.1693E-4,0
STARLINK-2019,2021-012X,2022-05-16T22:00:00.999936,15.06347966,.0001868,53.0544,109.0207,54.0131,276.6556,0,U,47641,999,7087,.38924E-2,.58094E-3,0
STARLINK-2020,2021-012Y,2022-05-16T10:52:24.529152,15.06394195,.0001744,53.0508,201.0919,47.6698,312.4438,0,U,47642,999,7005,.1032E-3,.1256E-4,0
