STARLINK-2005           
1 47600U 21009BE  22137.16588862  .00001966  00000+0  14768-3 0  9998
2 47600  53.0533 132.8865 0001695  52.4493 307.6650 15.07219757 71806
STARLINK-2006           
1 47601U 21009BF  22137.20914689  .00002080  00000+0  15852-3 0  9997
2 47601  53.0539 132.7184 0002012  50.2517 309.8649 15.06403004 71804
STARLINK-2007           
1 47602U 21009BG  22136.43417853 -.00001204  00000+0 -61920-4 0  9990
2 47602  53.0555 146.1918 0001931  50.9991 309.1170 15.06391546 70931
STARLINK-2008           
1 47603U 21009BH  22136.57885636 -.00000390  00000+0 -72882-5 0  9999
2 47603  53.0545 175.5374 0002046  40.5638 319.5503 15.06389793 70536
STARLINK-2021           
1 47604U 21009BJ  22136.30885467  .00000049  00000+0  22183-4 0  9990
2 47604  53.0538 146.7453 0002041  39.8855 320.2284 15.06398482 70927
STARLINK-2023           
1 47605U 21009BK  22136.81237441  .00279080  00000+0  10613-2 0  9996
2 47605  53.0476  75.0243 0004724 107.8300 252.3239 15.86298629 71961
STARLINK-2024           
1 47606U 21009BL  22136.71062151  .00000295  00000+0  38720-4 0  9991
2 47606  53.0550 144.9557 0001784  51.4247 308.6901 15.06398208 70984
STARLINK-2025           
1 47607U 21009BM  22137.15293403  .00006757  00000+0  47184-3 0  9999
2 47607  53.0535 142.9610 0002552  40.2557 319.8621 15.06421170 71642
STARLINK-1528           
1 47620U 21012A   22136.90412979  .00000257  00000+0  36186-4 0  9991
2 47620  53.0537 204.0738 0001655  55.1512 304.9632 15.06396303 70059
STARLINK-1609           
1 47621U 21012B   22137.16215507  .00001697  00000+0  13286-3 0  9993
2 47621  53.0542 202.9246 0002008  52.4370 307.6801 15.06381843 69589
STARLINK-1645           
1 47622U 21012C   22137.15752499  .00000622  00000+0  60688-4 0  9995
2 47622  53.0544 202.9289 0001689  59.1937 300.9218 15.06388362 69587
STARLINK-1655           
1 47623U 21012D   22136.70555480  .00002288  00000+0  17249-3 0  9991
2 47623  53.0554 139.9772 0001938  45.3351 314.7796 15.06399173 70947
STARLINK-1669           
1 47624U 21012E   22137.16399963 -.00001064  00000+0 -52528-4 0  9998
2 47624  53.0558 182.9209 0001697  59.5745 300.5412 15.06391678 69860
STARLINK-1704           
1 47625U 21012F   22136.90044844  .00000725  00000+0  67573-4 0  9992
2 47625  53.0536 204.0970 0001543  59.5786 300.5355 15.06399984 70050
STARLINK-1761           
1 47626U 21012G   22137.21743647 -.00000244  00000+0  24994-5 0  9993
2 47626  53.0566 202.6819 0001710  53.4892 306.6254 15.06386423 69593
STARLINK-1972           
1 47627U 21012H   22136.91667824  .00021463  00000+0  14555-2 0  9996
2 47627  53.0530 109.0049 0002432  52.8553  57.8327 15.06396288  1300
STARLINK-1973           
1 47628U 21012J   22136.52448483 -.00000853  00000+0 -38384-4 0  9992
2 47628  53.0535 205.7850 0001621  59.4178 300.6970 15.06390880 70003
STARLINK-1974           
1 47629U 21012K   22136.91667824  .00004706  00000+0  33476-3 0  9993
2 47629  53.0552  84.0178 0001590  57.7395  10.4251 15.06386564 71228
STARLINK-1983           
1 47630U 21012L   22136.85342881  .00002032  00000+0  15527-3 0  9998
2 47630  53.0549 184.3150 0002217  36.7923 323.3218 15.06400310 70315
STARLINK-1992           
1 47632U 21012N   22137.25001157  .00016851  00000+0  11481-2 0  9991
2 47632  53.0539 107.5365 0002041  48.6702 295.8300 15.06378206 70923
STARLINK-2009           
1 47633U 21012P   22136.47287333  .00000652  00000+0  62663-4 0  9999
2 47633  53.0545 206.0069 0001634  55.8816 304.2327 15.06394482 70018
STARLINK-2010           
1 47634U 21012Q   22136.91519189  .00000363  00000+0  43270-4 0  9998
2 47634  53.0557 204.0252 0001622  66.0681 294.0478 15.06396359 70057
STARLINK-2012           
1 47635U 21012R   22136.91667824  .00025678  00000+0  17380-2 0  9996
2 47635  53.0623 108.9554 0001699  51.9013 178.8692 15.06367760 70876
STARLINK-2013           
1 47636U 21012S   22136.83594214  .00000159  00000+0  29586-4 0  9990
2 47636  53.0555 184.3879 0001449  78.3027 281.8125 15.06396615 70327
STARLINK-2014           
1 47637U 21012T   22136.60742083 -.00000973  00000+0 -46410-4 0  9996
2 47637  53.0553 185.4143 0001954  45.7875 314.3274 15.06394249 70308
STARLINK-2015           
1 47638U 21012U   22136.33971901 -.00000260  00000+0  14856-5 0  9998
2 47638  53.0523 111.6125 0001903  68.7211 291.3981 15.06399368 71284
STARLINK-2016           
1 47639U 21012V   22136.85068510  .00001231  00000+0  10152-3 0  9990
2 47639  53.0548 184.3182 0001658  51.6063 308.5075 15.06398770 70319
STARLINK-2018           
1 47640U 21012W   22136.91150472  .00001693  00000+0  13253-3 0  9995
2 47640  53.0542 204.0380 0001771  48.3517 311.7624 15.06397990 70069
STARLINK-2019           
1 47641U 21012X   22136.91667824  .00058094  00000+0  38924-2 0  9998
2 47641  53.0544 109.0207 0001868  54.0131 276.6556 15.06347966 70877
STARLINK-2020           
1 47642U 21012Y   22136.45306168  .00001256  00000+0  10320-3 0  9998
2 47642  53.0508 201.0919 0001744  47.6698 312.4438 15.06394195 70054
